[{"OBJECT_NAME":"STARLINK-35693","OBJECT_ID":"2025-263F","EPOCH":"2026-03-09T02:43:04.851840","MEAN_MOTION":15.27570779,"ECCENTRICITY":0.00015218,"INCLINATION":43.0037,"RA_OF_ASC_NODE":353.707,"ARG_OF_PERICENTER":279.7392,"MEAN_ANOMALY":80.3287,"EPHEMERIS_TYPE":0,"CLASSIFICATION_TYPE":"U","NORAD_CAT_ID":66490,"ELEMENT_SET_NO":999,"REV_AT_EPOCH":1881,"BSTAR":0.00097873932,"MEAN_MOTION_DOT":0.00026761,"MEAN_MOTION_DDOT":0},{"OBJECT_NAME":"FENGYUN 1C DEB","OBJECT_ID":"1999-025BLC","EPOCH":"2026-03-08T16:01:16.538592","MEAN_MOTION":14.99951534,"ECCENTRICITY":0.01625238,"INCLINATION":98.6028,"RA_OF_ASC_NODE":151.5668,"ARG_OF_PERICENTER":148.1189,"MEAN_ANOMALY":212.9995,"EPHEMERIS_TYPE":0,"CLASSIFICATION_TYPE":"U","NORAD_CAT_ID":31222,"ELEMENT_SET_NO":999,"REV_AT_EPOCH":1270,"BSTAR":0.0010673359,"MEAN_MOTION_DOT":0.00017492,"MEAN_MOTION_DDOT":0}]
